XRISM                   
1 57800U 23137A   26075.83845909  .00004584  00000+0  25781-3 0  9998
2 57800  31.0006 237.4205 0007913 110.8758 249.2728 15.11582898138874
ACS3                    
1 59588U 24077B   26075.84148552  .00020267  00000+0  16158-1 0  9990
2 59588  97.2037  15.3457 0065644  59.3413 301.4200 13.89939193 95199
SZ-21 MODULE            
1 66515U 25246C   26075.63014367  .00032043  00000+0  27011-3 0  9997
2 66515  41.4745 160.6185 0000725 306.4076  53.6699 15.69116640 19161
